CCSDS_OMM_VERS = 2.0
CREATION_DATE  = 
ORIGINATOR     = 

OBJECT_NAME    = STARLINK-37132
OBJECT_ID      = 2026-054B
CENTER_NAME    = EARTH
REF_FRAME      = TEME
TIME_SYSTEM    = UTC
MEAN_ELEMENT_THEORY = SGP/SGP4

EPOCH          = 2026-03-31T04:27:51.314112
MEAN_MOTION    = 15.80895349
ECCENTRICITY   = .00009387
INCLINATION    = 53.1597
RA_OF_ASC_NODE = 204.9349
ARG_OF_PERICENTER = 27.7425
MEAN_ANOMALY   = 332.3648

EPHEMERIS_TYPE = 0
CLASSIFICATION_TYPE = U
NORAD_CAT_ID   = 68233
ELEMENT_SET_NO = 999
REV_AT_EPOCH   = 217
BSTAR          = .49575508E-3
MEAN_MOTION_DOT = .98369E-3
MEAN_MOTION_DDOT = 0

CCSDS_OMM_VERS = 2.0
CREATION_DATE  = 
ORIGINATOR     = 

OBJECT_NAME    = STARLINK-37101
OBJECT_ID      = 2026-054C
CENTER_NAME    = EARTH
REF_FRAME      = TEME
TIME_SYSTEM    = UTC
MEAN_ELEMENT_THEORY = SGP/SGP4

EPOCH          = 2026-03-31T04:27:02.261376
MEAN_MOTION    = 15.79678184
ECCENTRICITY   = .00056843
INCLINATION    = 53.1595
RA_OF_ASC_NODE = 204.9307
ARG_OF_PERICENTER = 333.6619
MEAN_ANOMALY   = 26.4114

EPHEMERIS_TYPE = 0
CLASSIFICATION_TYPE = U
NORAD_CAT_ID   = 68234
ELEMENT_SET_NO = 999
REV_AT_EPOCH   = 217
BSTAR          = -.45754288E-2
MEAN_MOTION_DOT = -.783663E-2
MEAN_MOTION_DDOT = 0

CCSDS_OMM_VERS = 2.0
CREATION_DATE  = 
ORIGINATOR     = 

OBJECT_NAME    = STARLINK-36963
OBJECT_ID      = 2026-054D
CENTER_NAME    = EARTH
REF_FRAME      = TEME
TIME_SYSTEM    = UTC
MEAN_ELEMENT_THEORY = SGP/SGP4

EPOCH          = 2026-03-31T06:00:02.000160
MEAN_MOTION    = 15.75118855
ECCENTRICITY   = .00012835
INCLINATION    = 53.1598
RA_OF_ASC_NODE = 204.6476
ARG_OF_PERICENTER = 73.8868
MEAN_ANOMALY   = 273.9100

EPHEMERIS_TYPE = 0
CLASSIFICATION_TYPE = U
NORAD_CAT_ID   = 68235
ELEMENT_SET_NO = 999
REV_AT_EPOCH   = 337
BSTAR          = .17640167E-2
MEAN_MOTION_DOT = .277362E-2
MEAN_MOTION_DDOT = 0

CCSDS_OMM_VERS = 2.0
CREATION_DATE  = 
ORIGINATOR     = 

OBJECT_NAME    = STARLINK-37127
OBJECT_ID      = 2026-054E
CENTER_NAME    = EARTH
REF_FRAME      = TEME
TIME_SYSTEM    = UTC
MEAN_ELEMENT_THEORY = SGP/SGP4

EPOCH          = 2026-03-31T04:44:51.861408
MEAN_MOTION    = 15.75267947
ECCENTRICITY   = .0000659
INCLINATION    = 53.1595
RA_OF_ASC_NODE = 205.0131
ARG_OF_PERICENTER = 52.2198
MEAN_ANOMALY   = 307.8882

EPHEMERIS_TYPE = 0
CLASSIFICATION_TYPE = U
NORAD_CAT_ID   = 68236
ELEMENT_SET_NO = 999
REV_AT_EPOCH   = 217
BSTAR          = .92183839E-3
MEAN_MOTION_DOT = .143265E-2
MEAN_MOTION_DDOT = 0

CCSDS_OMM_VERS = 2.0
CREATION_DATE  = 
ORIGINATOR     = 

OBJECT_NAME    = STARLINK-37095
OBJECT_ID      = 2026-054F
CENTER_NAME    = EARTH
REF_FRAME      = TEME
TIME_SYSTEM    = UTC
MEAN_ELEMENT_THEORY = SGP/SGP4

EPOCH          = 2026-03-31T06:00:02.000160
MEAN_MOTION    = 15.75126184
ECCENTRICITY   = .00011341
INCLINATION    = 53.1604
RA_OF_ASC_NODE = 204.7001
ARG_OF_PERICENTER = 68.3809
MEAN_ANOMALY   = 253.6710

EPHEMERIS_TYPE = 0
CLASSIFICATION_TYPE = U
NORAD_CAT_ID   = 68237
ELEMENT_SET_NO = 999
REV_AT_EPOCH   = 337
BSTAR          = .13415474E-2
MEAN_MOTION_DOT = .209134E-2
MEAN_MOTION_DDOT = 0

CCSDS_OMM_VERS = 2.0
CREATION_DATE  = 
ORIGINATOR     = 

OBJECT_NAME    = STARLINK-37097
OBJECT_ID      = 2026-054G
CENTER_NAME    = EARTH
REF_FRAME      = TEME
TIME_SYSTEM    = UTC
MEAN_ELEMENT_THEORY = SGP/SGP4

EPOCH          = 2026-03-31T07:24:31.763808
MEAN_MOTION    = 15.80934144
ECCENTRICITY   = .00009492
INCLINATION    = 53.1596
RA_OF_ASC_NODE = 204.2763
ARG_OF_PERICENTER = 72.8089
MEAN_ANOMALY   = 287.3038

EPHEMERIS_TYPE = 0
CLASSIFICATION_TYPE = U
NORAD_CAT_ID   = 68238
ELEMENT_SET_NO = 999
REV_AT_EPOCH   = 219
BSTAR          = .10394747E-2
MEAN_MOTION_DOT = .210119E-2
MEAN_MOTION_DDOT = 0

CCSDS_OMM_VERS = 2.0
CREATION_DATE  = 
ORIGINATOR     = 

OBJECT_NAME    = STARLINK-37096
OBJECT_ID      = 2026-054H
CENTER_NAME    = EARTH
REF_FRAME      = TEME
TIME_SYSTEM    = UTC
MEAN_ELEMENT_THEORY = SGP/SGP4

EPOCH          = 2026-03-31T07:22:22.188864
MEAN_MOTION    = 15.80938326
ECCENTRICITY   = .00011491
INCLINATION    = 53.1598
RA_OF_ASC_NODE = 204.2660
ARG_OF_PERICENTER = 67.8325
MEAN_ANOMALY   = 292.2820

EPHEMERIS_TYPE = 0
CLASSIFICATION_TYPE = U
NORAD_CAT_ID   = 68239
ELEMENT_SET_NO = 999
REV_AT_EPOCH   = 219
BSTAR          = .93660531E-3
MEAN_MOTION_DOT = .188821E-2
MEAN_MOTION_DDOT = 0

CCSDS_OMM_VERS = 2.0
CREATION_DATE  = 
ORIGINATOR     = 

OBJECT_NAME    = STARLINK-37092
OBJECT_ID      = 2026-054J
CENTER_NAME    = EARTH
REF_FRAME      = TEME
TIME_SYSTEM    = UTC
MEAN_ELEMENT_THEORY = SGP/SGP4

EPOCH          = 2026-03-31T07:23:27.204000
MEAN_MOTION    = 15.80870527
ECCENTRICITY   = .00010475
INCLINATION    = 53.1602
RA_OF_ASC_NODE = 204.2712
ARG_OF_PERICENTER = 58.7933
MEAN_ANOMALY   = 301.3192

EPHEMERIS_TYPE = 0
CLASSIFICATION_TYPE = U
NORAD_CAT_ID   = 68240
ELEMENT_SET_NO = 999
REV_AT_EPOCH   = 219
BSTAR          = .85318323E-3
MEAN_MOTION_DOT = .171047E-2
MEAN_MOTION_DDOT = 0

CCSDS_OMM_VERS = 2.0
CREATION_DATE  = 
ORIGINATOR     = 

OBJECT_NAME    = STARLINK-37094
OBJECT_ID      = 2026-054K
CENTER_NAME    = EARTH
REF_FRAME      = TEME
TIME_SYSTEM    = UTC
MEAN_ELEMENT_THEORY = SGP/SGP4

EPOCH          = 2026-03-31T07:21:17.579808
MEAN_MOTION    = 15.80935106
ECCENTRICITY   = .00011142
INCLINATION    = 53.1599
RA_OF_ASC_NODE = 204.2612
ARG_OF_PERICENTER = 117.6905
MEAN_ANOMALY   = 242.4231

EPHEMERIS_TYPE = 0
CLASSIFICATION_TYPE = U
NORAD_CAT_ID   = 68241
ELEMENT_SET_NO = 999
REV_AT_EPOCH   = 219
BSTAR          = .99235458E-3
MEAN_MOTION_DOT = .200342E-2
MEAN_MOTION_DDOT = 0

CCSDS_OMM_VERS = 2.0
CREATION_DATE  = 
ORIGINATOR     = 

OBJECT_NAME    = STARLINK-36356
OBJECT_ID      = 2026-054L
CENTER_NAME    = EARTH
REF_FRAME      = TEME
TIME_SYSTEM    = UTC
MEAN_ELEMENT_THEORY = SGP/SGP4

EPOCH          = 2026-03-30T17:41:00.354624
MEAN_MOTION    = 15.80312000
ECCENTRICITY   = .00005033
INCLINATION    = 53.1596
RA_OF_ASC_NODE = 207.1073
ARG_OF_PERICENTER = 49.8547
MEAN_ANOMALY   = 310.2520

EPHEMERIS_TYPE = 0
CLASSIFICATION_TYPE = U
NORAD_CAT_ID   = 68242
ELEMENT_SET_NO = 999
REV_AT_EPOCH   = 210
BSTAR          = -.25692398E-2
MEAN_MOTION_DOT = -.468872E-2
MEAN_MOTION_DDOT = 0

CCSDS_OMM_VERS = 2.0
CREATION_DATE  = 
ORIGINATOR     = 

OBJECT_NAME    = STARLINK-36345
OBJECT_ID      = 2026-054M
CENTER_NAME    = EARTH
REF_FRAME      = TEME
TIME_SYSTEM    = UTC
MEAN_ELEMENT_THEORY = SGP/SGP4

EPOCH          = 2026-03-31T06:00:02.000160
MEAN_MOTION    = 15.75133311
ECCENTRICITY   = .00009842
INCLINATION    = 53.1606
RA_OF_ASC_NODE = 204.6427
ARG_OF_PERICENTER = 90.7428
MEAN_ANOMALY   = 258.9282

EPHEMERIS_TYPE = 0
CLASSIFICATION_TYPE = U
NORAD_CAT_ID   = 68243
ELEMENT_SET_NO = 999
REV_AT_EPOCH   = 341
BSTAR          = .12172792E-2
MEAN_MOTION_DOT = .189313E-2
MEAN_MOTION_DDOT = 0

CCSDS_OMM_VERS = 2.0
CREATION_DATE  = 
ORIGINATOR     = 

OBJECT_NAME    = STARLINK-36310
OBJECT_ID      = 2026-054N
CENTER_NAME    = EARTH
REF_FRAME      = TEME
TIME_SYSTEM    = UTC
MEAN_ELEMENT_THEORY = SGP/SGP4

EPOCH          = 2026-03-31T07:16:58.319328
MEAN_MOTION    = 15.80967083
ECCENTRICITY   = .00022547
INCLINATION    = 53.1599
RA_OF_ASC_NODE = 204.2403
ARG_OF_PERICENTER = 98.2536
MEAN_ANOMALY   = 261.8743

EPHEMERIS_TYPE = 0
CLASSIFICATION_TYPE = U
NORAD_CAT_ID   = 68244
ELEMENT_SET_NO = 999
REV_AT_EPOCH   = 219
BSTAR          = .16472374E-2
MEAN_MOTION_DOT = .338966E-2
MEAN_MOTION_DDOT = 0

