STARLINK-37132          
1 68233U 26054B   26090.18601058  .00098369  00000+0  49576-3 0  9993
2 68233  53.1597 204.9349 0000938  27.7425 332.3648 15.80895349  2173
STARLINK-37101          
1 68234U 26054C   26090.18544284 -.00783663  00000+0 -45754-2 0  9994
2 68234  53.1595 204.9307 0005684 333.6619  26.4114 15.79678184  2176
STARLINK-36963          
1 68235U 26054D   26090.25002315  .00277362  00000+0  17640-2 0  9992
2 68235  53.1598 204.6476 0001283  73.8868 273.9100 15.75118855  3371
STARLINK-37127          
1 68236U 26054E   26090.19782247  .00143265  00000+0  92184-3 0  9996
2 68236  53.1595 205.0131 0000659  52.2198 307.8882 15.75267947  2173
STARLINK-37095          
1 68237U 26054F   26090.25002315  .00209134  00000+0  13415-2 0  9992
2 68237  53.1604 204.7001 0001134  68.3809 253.6710 15.75126184  3371
STARLINK-37097          
1 68238U 26054G   26090.30870097  .00210119  00000+0  10395-2 0  9998
2 68238  53.1596 204.2763 0000949  72.8089 287.3038 15.80934144  2190
STARLINK-37096          
1 68239U 26054H   26090.30720126  .00188821  00000+0  93661-3 0  9998
2 68239  53.1598 204.2660 0001149  67.8325 292.2820 15.80938326  2199
STARLINK-37092          
1 68240U 26054J   26090.30795375  .00171047  00000+0  85318-3 0  9990
2 68240  53.1602 204.2712 0001047  58.7933 301.3192 15.80870527  2198
STARLINK-37094          
1 68241U 26054K   26090.30645347  .00200342  00000+0  99235-3 0  9998
2 68241  53.1599 204.2612 0001114 117.6905 242.4231 15.80935106  2196
STARLINK-36356          
1 68242U 26054L   26089.73680966 -.00468872  00000+0 -25692-2 0  9991
2 68242  53.1596 207.1073 0000503  49.8547 310.2520 15.80312000  2104
STARLINK-36345          
1 68243U 26054M   26090.25002315  .00189313  00000+0  12173-2 0  9995
2 68243  53.1606 204.6427 0000984  90.7428 258.9282 15.75133311  3416
STARLINK-36310          
1 68244U 26054N   26090.30345277  .00338966  00000+0  16472-2 0  9995
2 68244  53.1599 204.2403 0002254  98.2536 261.8743 15.80967083  2199
